NORAD_CAT_ID,OBJECT_NAME,OBJECT_TYPE,EPOCH,MEAN_MOTION,ECCENTRICITY,INCLINATION,RA_OF_ASC_NODE,ARG_OF_PERICENTER,MEAN_ANOMALY,BSTAR,MEAN_MOTION_DOT,MEAN_MOTION_DDOT,TLE_LINE0,TLE_LINE1,TLE_LINE2,SEMIMAJOR_AXIS,PERIOD,APOGEE,PERIGEE,DECAYED
55398.0,STARLINK-5275,PAYLOAD,2023-10-14 13:53:59,14.98331503,0.0002899,69.9992,115.9312,269.9893,90.0934,-4.841e-05,-6.71e-06,0.0,0 STARLINK-5275,1 55398U 23014H   23287.57916431 -.00000671  00000-0 -48410-4 0  9995,2 55398  69.9992 115.9312 0002899 269.9893  90.0934 14.98331503 40671,6950.188,96.107,574.068,570.038,0.0
55398.0,STARLINK-5275,PAYLOAD,2023-10-14 20:18:32,14.98330892,0.0002932,69.9991,115.2579,268.9026,91.1797,-5.3468e-05,-7.31e-06,0.0,0 STARLINK-5275,1 55398U 23014H   23287.84620439 -.00000731  00000-0 -53468-4 0  9991,2 55398  69.9991 115.2579 0002932 268.9026  91.1797 14.98330892 39771,6950.19,96.107,574.093,570.017,0.0
55398.0,STARLINK-5275,PAYLOAD,2023-10-14 21:54:40,14.98330549,0.0002934,69.9991,115.0896,268.8623,91.22,-5.6311e-05,-7.65e-06,0.0,0 STARLINK-5275,1 55398U 23014H   23287.91296461 -.00000765  00000-0 -56311-4 0  9990,2 55398  69.9991 115.0896 0002934 268.8623  91.2200 14.98330549 40721,6950.191,96.107,574.095,570.017,0.0
55398.0,STARLINK-5275,PAYLOAD,2023-10-15 13:56:00,14.98329503,0.000298,69.9989,113.4061,269.3442,90.7376,-8.4617e-06,-1.94e-06,0.0,0 STARLINK-5275,1 55398U 23014H   23288.58056337 -.00000194  00000-0 -84617-5 0  9997,2 55398  69.9989 113.4061 0002980 269.3442  90.7376 14.98329503 40827,6950.194,96.107,574.131,569.988,0.0
55398.0,STARLINK-5275,PAYLOAD,2023-10-15 20:20:32,14.98330143,0.0003016,69.999,112.7325,269.1301,90.9512,-2.292e-05,-3.66e-06,0.0,0 STARLINK-5275,1 55398U 23014H   23288.84760325 -.00000366  00000-0 -22920-4 0  9994,2 55398  69.9990 112.7325 0003016 269.1301  90.9512 14.98330143 39922,6950.192,96.107,574.154,569.961,0.0
55398.0,STARLINK-5275,PAYLOAD,2023-10-15 21:56:40,14.98330092,0.000303,69.9989,112.5641,269.292,90.7891,-2.3982e-05,-3.79e-06,0.0,0 STARLINK-5275,1 55398U 23014H   23288.91436327 -.00000379  00000-0 -23982-4 0  9997,2 55398  69.9989 112.5641 0003030 269.2920  90.7891 14.98330092 40870,6950.193,96.107,574.164,569.952,0.0
55398.0,STARLINK-5275,PAYLOAD,2023-10-16 13:58:01,14.9832962,0.0003098,69.9989,110.8803,269.4168,90.6637,1.0546e-05,3.3e-07,0.0,0 STARLINK-5275,1 55398U 23014H   23289.58196245  .00000033  00000-0  10546-4 0  9990,2 55398  69.9989 110.8803 0003098 269.4168  90.6637 14.98329620 40974,6950.194,96.107,574.212,569.906,0.0
55398.0,STARLINK-5275,PAYLOAD,2023-10-16 17:10:17,14.98329974,0.00031,69.999,110.5436,269.3179,90.7625,1.383e-05,7.2e-07,0.0,0 STARLINK-5275,1 55398U 23014H   23289.71548210  .00000072  00000-0  13830-4 0  9990,2 55398  69.9990 110.5436 0003100 269.3179  90.7625 14.98329974 40992,6950.193,96.107,574.213,569.903,0.0
55398.0,STARLINK-5275,PAYLOAD,2023-10-17 05:59:22,14.98330697,0.0003076,69.999,109.1968,269.3503,90.7304,2.024e-05,1.48e-06,0.0,0 STARLINK-5275,1 55398U 23014H   23290.24956117  .00000148  00000-0  20240-4 0  9996,2 55398  69.9990 109.1968 0003076 269.3503  90.7304 14.98330697 40133,6950.191,96.107,574.194,569.918,0.0
55398.0,STARLINK-5275,PAYLOAD,2023-10-17 12:23:54,14.98331125,0.0003087,69.999,108.5235,269.3041,90.7764,3.7188e-05,3.51e-06,0.0,0 STARLINK-5275,1 55398U 23014H   23290.51660013  .00000351  00000-0  37188-4 0  9998,2 55398  69.9990 108.5235 0003087 269.3041  90.7764 14.98331125 41118,6950.189,96.107,574.2,569.909,0.0
55398.0,STARLINK-5275,PAYLOAD,2023-10-17 18:48:26,14.98332101,0.0003101,69.999,107.8504,269.4365,90.6438,2.7342e-05,2.33e-06,0.0,0 STARLINK-5275,1 55398U 23014H   23290.78363945  .00000233  00000-0  27342-4 0  9991,2 55398  69.9990 107.8504 0003101 269.4365  90.6438 14.98332101 41152,6950.186,96.107,574.207,569.896,0.0
55398.0,STARLINK-5275,PAYLOAD,2023-10-18 10:49:47,14.98332436,0.0002155,70.0002,106.1696,266.4556,93.6357,2.3123e-06,-6.5e-07,0.0,0 STARLINK-5275,1 55398U 23014H   23291.45124027 -.00000065  00000-0  23123-5 0  9990,2 55398  70.0002 106.1696 0002155 266.4556  93.6357 14.98332436 40311,6950.185,96.107,573.548,570.553,0.0
55398.0,STARLINK-5275,PAYLOAD,2023-10-18 12:25:55,14.98333652,0.0002931,69.9996,105.9991,270.5252,89.5571,-5.1125e-05,-7.03e-06,0.0,0 STARLINK-5275,1 55398U 23014H   23291.51800051 -.00000703  00000-0 -51125-4 0  9997,2 55398  69.9996 105.9991 0002931 270.5252  89.5571 14.98333652 41264,6950.182,96.107,574.084,570.009,0.0
55398.0,STARLINK-5275,PAYLOAD,2023-10-19 04:27:16,14.98296513,0.00026,69.9996,104.3141,261.8167,98.2697,0.00055,6.47e-05,0.0,0 STARLINK-5275,1 55398U 23014H   23292.18560939  .00006470  00000-0  55000-3 0  9999,2 55398  69.9996 104.3141 0002600 261.8167  98.2697 14.98296513 40422,6950.296,96.109,573.969,570.354,0.0
55398.0,STARLINK-5275,PAYLOAD,2023-10-19 10:51:48,14.98334487,0.0002501,69.9941,103.6395,278.1487,81.9388,-0.0003187,-3.894e-05,0.0,0 STARLINK-5275,1 55398U 23014H   23292.45264750 -.00003894  00000-0 -31870-3 0  9999,2 55398  69.9941 103.6395 0002501 278.1487  81.9388 14.98334487 40464,6950.179,96.107,573.782,570.306,0.0
55398.0,STARLINK-5275,PAYLOAD,2023-10-19 12:27:54,14.98363257,0.0002155,69.9969,103.4716,268.5702,91.521,8.0548e-05,8.69e-06,0.0,0 STARLINK-5275,1 55398U 23014H   23292.51937950  .00000869  00000-0  80548-4 0  9999,2 55398  69.9969 103.4716 0002155 268.5702  91.5210 14.98363257 41411,6950.09,96.105,573.453,570.457,0.0
55398.0,STARLINK-5275,PAYLOAD,2023-10-19 22:04:44,14.98334095,0.0003091,69.9996,102.4643,269.587,90.4934,2.0493e-05,1.52e-06,0.0,0 STARLINK-5275,1 55398U 23014H   23292.91995558  .00000152  00000-0  20493-4 0  9999,2 55398  69.9996 102.4643 0003091 269.5870  90.4934 14.98334095 41471,6950.18,96.107,574.194,569.897,0.0
55398.0,STARLINK-5275,PAYLOAD,2023-10-20 12:29:57,14.9832652,0.0002989,69.9975,100.9479,273.5778,86.5039,-3.4788e-05,-5.08e-06,0.0,0 STARLINK-5275,1 55398U 23014H   23293.52080225 -.00000508  00000-0 -34788-4 0  9992,2 55398  69.9975 100.9479 0002989 273.5778  86.5039 14.98326520 40627,6950.204,96.107,574.146,569.991,0.0
55398.0,STARLINK-5275,PAYLOAD,2023-10-20 22:06:45,14.98325509,0.000301,69.9976,99.9378,272.8505,87.231,-4.2311e-05,-5.98e-06,0.0,0 STARLINK-5275,1 55398U 23014H   23293.92136389 -.00000598  00000-0 -42311-4 0  9999,2 55398  69.9976  99.9378 0003010 272.8505  87.2310 14.98325509 41626,6950.207,96.107,574.164,569.98,0.0
55398.0,STARLINK-5275,PAYLOAD,2023-10-21 12:31:57,14.98332294,0.0002982,69.9997,98.4242,266.9531,93.1286,2.7439e-06,-6e-07,0.0,0 STARLINK-5275,1 55398U 23014H   23294.52219817 -.00000060  00000-0  27439-5 0  9992,2 55398  69.9997  98.4242 0002982 266.9531  93.1286 14.98332294 40775,6950.186,96.107,574.123,569.978,0.0
55398.0,STARLINK-5275,PAYLOAD,2023-10-21 20:32:37,14.9833513,0.000309,69.9983,97.5811,267.9541,92.1264,2.5451e-05,2.11e-06,0.0,0 STARLINK-5275,1 55398U 23014H   23294.85599495  .00000211  00000-0  25451-4 0  9999,2 55398  69.9983  97.5811 0003090 267.9541  92.1264 14.98335130 41762,6950.177,96.107,574.19,569.894,0.0
55398.0,STARLINK-5275,PAYLOAD,2023-10-22 12:33:59,14.98323771,0.0003133,69.9983,95.898,269.4052,90.6748,-4.7058e-06,-1.49e-06,0.0,0 STARLINK-5275,1 55398U 23014H   23295.52360285 -.00000149  00000-0 -47058-5 0  9997,2 55398  69.9983  95.8980 0003133 269.4052  90.6748 14.98323771 40927,6950.212,96.107,574.255,569.9,0.0
55398.0,STARLINK-5275,PAYLOAD,2023-10-22 14:10:07,14.98323683,0.0003136,69.9983,95.7296,269.3867,90.6933,-6.0437e-06,-1.65e-06,0.0,0 STARLINK-5275,1 55398U 23014H   23295.59036313 -.00000165  00000-0 -60437-5 0  9990,2 55398  69.9983  95.7296 0003136 269.3867  90.6933 14.98323683 41875,6950.212,96.107,574.257,569.898,0.0
55398.0,STARLINK-5275,PAYLOAD,2023-10-22 20:34:39,14.98326494,0.0003094,69.9984,95.0568,268.6812,91.3993,2.186e-05,1.68e-06,0.0,0 STARLINK-5275,1 55398U 23014H   23295.85740145  .00000168  00000-0  21860-4 0  9991,2 55398  69.9984  95.0568 0003094 268.6812  91.3993 14.98326494 41918,6950.204,96.107,574.219,569.918,0.0
55398.0,STARLINK-5275,PAYLOAD,2023-10-23 12:35:59,14.98332447,0.0003131,69.9983,93.3726,268.8886,91.1915,3.4311e-06,-5.2e-07,0.0,0 STARLINK-5275,1 55398U 23014H   23296.52499753 -.00000052  00000-0  34311-5 0  9991,2 55398  69.9983  93.3726 0003131 268.8886  91.1915 14.98332447 41073,6950.185,96.107,574.226,569.874,0.0
55398.0,STARLINK-5275,PAYLOAD,2023-10-23 20:36:39,14.98337254,0.0003143,69.9987,92.5319,270.5414,89.5385,2.4842e-05,2.03e-06,0.0,0 STARLINK-5275,1 55398U 23014H   23296.85879325  .00000203  00000-0  24842-4 0  9998,2 55398  69.9987  92.5319 0003143 270.5414  89.5385 14.98337254 42069,6950.17,96.107,574.22,569.851,0.0
55398.0,STARLINK-5275,PAYLOAD,2023-10-24 12:38:00,14.98326121,0.0003064,69.9993,90.8491,270.6269,89.4539,2.7949e-05,2.4e-06,0.0,0 STARLINK-5275,1 55398U 23014H   23297.52639939  .00000240  00000-0  27949-4 0  9990,2 55398  69.9993  90.8491 0003064 270.6269  89.4539 14.98326121 42161,6950.205,96.107,574.199,569.94,0.0
55398.0,STARLINK-5275,PAYLOAD,2023-10-25 14:16:09,14.98333619,0.0003058,69.9995,88.1556,271.4162,88.6646,-2.9905e-05,-4.5e-06,0.0,0 STARLINK-5275,1 55398U 23014H   23298.59455600 -.00000450  00000-0 -29905-4 0  9998,2 55398  69.9995  88.1556 0003058 271.4162  88.6646 14.98333619 41382,6950.182,96.107,574.172,569.921,0.0
55398.0,STARLINK-5275,PAYLOAD,2023-10-26 12:42:02,14.98325964,0.0003055,69.9998,85.7993,270.3677,89.7131,-3.0902e-05,-4.62e-06,0.0,0 STARLINK-5275,1 55398U 23014H   23299.52919995 -.00000462  00000-0 -30902-4 0  9996,2 55398  69.9998  85.7993 0003055 270.3677  89.7131 14.98325964 41520,6950.205,96.107,574.194,569.947,0.0
55398.0,STARLINK-5275,PAYLOAD,2023-10-26 14:18:10,14.98326499,0.0002927,69.9998,85.6315,267.7152,92.3672,-3.0025e-05,-4.51e-06,0.0,0 STARLINK-5275,1 55398U 23014H   23299.59595967 -.00000451  00000-0 -30025-4 0  9996,2 55398  69.9998  85.6315 0002927 267.7152  92.3672 14.98326499 42471,6950.204,96.107,574.103,570.034,0.0
